UNKNOWN                 
1 87320U          25341.33434170  .00001947  00000+0  12489-2 0  9996
2 87320  66.5937  97.1677 0415089  58.3335 305.7518 13.70036275593009
UNKNOWN                 
1 87334U          25341.51055794  .00033959  00000+0  20052-1 0  9994
2 87334  89.9946 271.7173 0068174 273.2857  86.0528 14.06423921385917
UNKNOWN                 
1 87335U          25341.52436695  .00031229  00000+0  18168-1 0  9992
2 87335  89.9796 268.0330 0077140 246.4384 112.8683 14.06926294386243
UNKNOWN                 
1 87405U          25341.55402540  .00003724  00000+0  26571-2 0  9992
2 87405  82.7506  64.2115 0056731 345.6608  14.2946 13.96326508610430
UNKNOWN                 
1 87426U          25341.30836255  .00009113  00000+0  34941-2 0  9990
2 87426  65.7842 349.2775 0070380 293.5191  86.8899 14.29546617621817
UNKNOWN                 
1 87448U          25341.04295504  .00002278  00000+0  18421-2 0  9991
2 87448 100.4521 186.8619 0063163 219.8333 139.8176 13.90577334608442
UNKNOWN                 
1 87456U          25340.63787409  .00006883  00000+0  10360-2 0  9994
2 87456  65.7818 107.1903 0510617   8.0641 352.8261 14.13392421610630
UNKNOWN                 
1 87517U          25341.38580071  .00004775  00000+0  13314-2 0  9991
2 87517  65.8264 245.8696 0674841 308.9991 162.9868 13.61222560592183
UNKNOWN                 
1 87541U          25341.55037037  .00000340  00000+0  74449-3 0  9997
2 87541  99.6998 195.7254 0059473 275.6633 112.5958 13.35589670581349
UNKNOWN                 
1 87553U          25340.54441142  .00006477  00000+0  19420-2 0  9998
2 87553  65.6711  10.8694 0701050 230.2419 123.4847 13.53429466590419
UNKNOWN                 
1 87557U          25341.55684146  .00006931  00000+0  15256-1 0  9994
2 87557 101.7248 196.3279 0070981  15.0409 345.2795 13.27694723564349
UNKNOWN                 
1 87561U          25328.11262889  .00000022  00000+0  51925-3 0  9992
2 87561 102.0131  26.1651 0173943 327.1787  60.0517 12.32152378540147
