CCSDS_OMM_VERS = 2.0
CREATION_DATE  = 
ORIGINATOR     = 

OBJECT_NAME    = UNKNOWN
OBJECT_ID      = 
CENTER_NAME    = EARTH
REF_FRAME      = TEME
TIME_SYSTEM    = UTC
MEAN_ELEMENT_THEORY = SGP/SGP4

EPOCH          = 2025-12-07T08:01:27.122880
MEAN_MOTION    = 13.70036275
ECCENTRICITY   = .0415089
INCLINATION    = 66.5937
RA_OF_ASC_NODE = 97.1677
ARG_OF_PERICENTER = 58.3335
MEAN_ANOMALY   = 305.7518

EPHEMERIS_TYPE = 0
CLASSIFICATION_TYPE = U
NORAD_CAT_ID   = 87320
ELEMENT_SET_NO = 999
REV_AT_EPOCH   = 59300
BSTAR          = .12489E-2
MEAN_MOTION_DOT = .1947E-4
MEAN_MOTION_DDOT = 0

CCSDS_OMM_VERS = 2.0
CREATION_DATE  = 
ORIGINATOR     = 

OBJECT_NAME    = UNKNOWN
OBJECT_ID      = 
CENTER_NAME    = EARTH
REF_FRAME      = TEME
TIME_SYSTEM    = UTC
MEAN_ELEMENT_THEORY = SGP/SGP4

EPOCH          = 2025-12-07T12:15:12.206016
MEAN_MOTION    = 14.06423921
ECCENTRICITY   = .0068174
INCLINATION    = 89.9946
RA_OF_ASC_NODE = 271.7173
ARG_OF_PERICENTER = 273.2857
MEAN_ANOMALY   = 86.0528

EPHEMERIS_TYPE = 0
CLASSIFICATION_TYPE = U
NORAD_CAT_ID   = 87334
ELEMENT_SET_NO = 999
REV_AT_EPOCH   = 38591
BSTAR          = .20052E-1
MEAN_MOTION_DOT = .33959E-3
MEAN_MOTION_DDOT = 0

CCSDS_OMM_VERS = 2.0
CREATION_DATE  = 
ORIGINATOR     = 

OBJECT_NAME    = UNKNOWN
OBJECT_ID      = 
CENTER_NAME    = EARTH
REF_FRAME      = TEME
TIME_SYSTEM    = UTC
MEAN_ELEMENT_THEORY = SGP/SGP4

EPOCH          = 2025-12-07T12:35:05.304480
MEAN_MOTION    = 14.06926294
ECCENTRICITY   = .007714
INCLINATION    = 89.9796
RA_OF_ASC_NODE = 268.0330
ARG_OF_PERICENTER = 246.4384
MEAN_ANOMALY   = 112.8683

EPHEMERIS_TYPE = 0
CLASSIFICATION_TYPE = U
NORAD_CAT_ID   = 87335
ELEMENT_SET_NO = 999
REV_AT_EPOCH   = 38624
BSTAR          = .18168E-1
MEAN_MOTION_DOT = .31229E-3
MEAN_MOTION_DDOT = 0

CCSDS_OMM_VERS = 2.0
CREATION_DATE  = 
ORIGINATOR     = 

OBJECT_NAME    = UNKNOWN
OBJECT_ID      = 
CENTER_NAME    = EARTH
REF_FRAME      = TEME
TIME_SYSTEM    = UTC
MEAN_ELEMENT_THEORY = SGP/SGP4

EPOCH          = 2025-12-07T13:17:47.794560
MEAN_MOTION    = 13.96326508
ECCENTRICITY   = .0056731
INCLINATION    = 82.7506
RA_OF_ASC_NODE = 64.2115
ARG_OF_PERICENTER = 345.6608
MEAN_ANOMALY   = 14.2946

EPHEMERIS_TYPE = 0
CLASSIFICATION_TYPE = U
NORAD_CAT_ID   = 87405
ELEMENT_SET_NO = 999
REV_AT_EPOCH   = 61043
BSTAR          = .26571E-2
MEAN_MOTION_DOT = .3724E-4
MEAN_MOTION_DDOT = 0

CCSDS_OMM_VERS = 2.0
CREATION_DATE  = 
ORIGINATOR     = 

OBJECT_NAME    = UNKNOWN
OBJECT_ID      = 
CENTER_NAME    = EARTH
REF_FRAME      = TEME
TIME_SYSTEM    = UTC
MEAN_ELEMENT_THEORY = SGP/SGP4

EPOCH          = 2025-12-07T07:24:02.524320
MEAN_MOTION    = 14.29546617
ECCENTRICITY   = .007038
INCLINATION    = 65.7842
RA_OF_ASC_NODE = 349.2775
ARG_OF_PERICENTER = 293.5191
MEAN_ANOMALY   = 86.8899

EPHEMERIS_TYPE = 0
CLASSIFICATION_TYPE = U
NORAD_CAT_ID   = 87426
ELEMENT_SET_NO = 999
REV_AT_EPOCH   = 62181
BSTAR          = .34941E-2
MEAN_MOTION_DOT = .9113E-4
MEAN_MOTION_DDOT = 0

CCSDS_OMM_VERS = 2.0
CREATION_DATE  = 
ORIGINATOR     = 

OBJECT_NAME    = UNKNOWN
OBJECT_ID      = 
CENTER_NAME    = EARTH
REF_FRAME      = TEME
TIME_SYSTEM    = UTC
MEAN_ELEMENT_THEORY = SGP/SGP4

EPOCH          = 2025-12-07T01:01:51.315456
MEAN_MOTION    = 13.90577334
ECCENTRICITY   = .0063163
INCLINATION    = 100.4521
RA_OF_ASC_NODE = 186.8619
ARG_OF_PERICENTER = 219.8333
MEAN_ANOMALY   = 139.8176

EPHEMERIS_TYPE = 0
CLASSIFICATION_TYPE = U
NORAD_CAT_ID   = 87448
ELEMENT_SET_NO = 999
REV_AT_EPOCH   = 60844
BSTAR          = .18421E-2
MEAN_MOTION_DOT = .2278E-4
MEAN_MOTION_DDOT = 0

CCSDS_OMM_VERS = 2.0
CREATION_DATE  = 
ORIGINATOR     = 

OBJECT_NAME    = UNKNOWN
OBJECT_ID      = 
CENTER_NAME    = EARTH
REF_FRAME      = TEME
TIME_SYSTEM    = UTC
MEAN_ELEMENT_THEORY = SGP/SGP4

EPOCH          = 2025-12-06T15:18:32.321376
MEAN_MOTION    = 14.13392421
ECCENTRICITY   = .0510617
INCLINATION    = 65.7818
RA_OF_ASC_NODE = 107.1903
ARG_OF_PERICENTER = 8.0641
MEAN_ANOMALY   = 352.8261

EPHEMERIS_TYPE = 0
CLASSIFICATION_TYPE = U
NORAD_CAT_ID   = 87456
ELEMENT_SET_NO = 999
REV_AT_EPOCH   = 61063
BSTAR          = .1036E-2
MEAN_MOTION_DOT = .6883E-4
MEAN_MOTION_DDOT = 0

CCSDS_OMM_VERS = 2.0
CREATION_DATE  = 
ORIGINATOR     = 

OBJECT_NAME    = UNKNOWN
OBJECT_ID      = 
CENTER_NAME    = EARTH
REF_FRAME      = TEME
TIME_SYSTEM    = UTC
MEAN_ELEMENT_THEORY = SGP/SGP4

EPOCH          = 2025-12-07T09:15:33.181344
MEAN_MOTION    = 13.61222560
ECCENTRICITY   = .0674841
INCLINATION    = 65.8264
RA_OF_ASC_NODE = 245.8696
ARG_OF_PERICENTER = 308.9991
MEAN_ANOMALY   = 162.9868

EPHEMERIS_TYPE = 0
CLASSIFICATION_TYPE = U
NORAD_CAT_ID   = 87517
ELEMENT_SET_NO = 999
REV_AT_EPOCH   = 59218
BSTAR          = .13314E-2
MEAN_MOTION_DOT = .4775E-4
MEAN_MOTION_DDOT = 0

CCSDS_OMM_VERS = 2.0
CREATION_DATE  = 
ORIGINATOR     = 

OBJECT_NAME    = UNKNOWN
OBJECT_ID      = 
CENTER_NAME    = EARTH
REF_FRAME      = TEME
TIME_SYSTEM    = UTC
MEAN_ELEMENT_THEORY = SGP/SGP4

EPOCH          = 2025-12-07T13:12:31.999968
MEAN_MOTION    = 13.35589670
ECCENTRICITY   = .0059473
INCLINATION    = 99.6998
RA_OF_ASC_NODE = 195.7254
ARG_OF_PERICENTER = 275.6633
MEAN_ANOMALY   = 112.5958

EPHEMERIS_TYPE = 0
CLASSIFICATION_TYPE = U
NORAD_CAT_ID   = 87541
ELEMENT_SET_NO = 999
REV_AT_EPOCH   = 58134
BSTAR          = .74449E-3
MEAN_MOTION_DOT = .34E-5
MEAN_MOTION_DDOT = 0

CCSDS_OMM_VERS = 2.0
CREATION_DATE  = 
ORIGINATOR     = 

OBJECT_NAME    = UNKNOWN
OBJECT_ID      = 
CENTER_NAME    = EARTH
REF_FRAME      = TEME
TIME_SYSTEM    = UTC
MEAN_ELEMENT_THEORY = SGP/SGP4

EPOCH          = 2025-12-06T13:03:57.146688
MEAN_MOTION    = 13.53429466
ECCENTRICITY   = .070105
INCLINATION    = 65.6711
RA_OF_ASC_NODE = 10.8694
ARG_OF_PERICENTER = 230.2419
MEAN_ANOMALY   = 123.4847

EPHEMERIS_TYPE = 0
CLASSIFICATION_TYPE = U
NORAD_CAT_ID   = 87553
ELEMENT_SET_NO = 999
REV_AT_EPOCH   = 59041
BSTAR          = .1942E-2
MEAN_MOTION_DOT = .6477E-4
MEAN_MOTION_DDOT = 0

CCSDS_OMM_VERS = 2.0
CREATION_DATE  = 
ORIGINATOR     = 

OBJECT_NAME    = UNKNOWN
OBJECT_ID      = 
CENTER_NAME    = EARTH
REF_FRAME      = TEME
TIME_SYSTEM    = UTC
MEAN_ELEMENT_THEORY = SGP/SGP4

EPOCH          = 2025-12-07T13:21:51.102144
MEAN_MOTION    = 13.27694723
ECCENTRICITY   = .0070981
INCLINATION    = 101.7248
RA_OF_ASC_NODE = 196.3279
ARG_OF_PERICENTER = 15.0409
MEAN_ANOMALY   = 345.2795

EPHEMERIS_TYPE = 0
CLASSIFICATION_TYPE = U
NORAD_CAT_ID   = 87557
ELEMENT_SET_NO = 999
REV_AT_EPOCH   = 56434
BSTAR          = .15256E-1
MEAN_MOTION_DOT = .6931E-4
MEAN_MOTION_DDOT = 0

CCSDS_OMM_VERS = 2.0
CREATION_DATE  = 
ORIGINATOR     = 

OBJECT_NAME    = UNKNOWN
OBJECT_ID      = 
CENTER_NAME    = EARTH
REF_FRAME      = TEME
TIME_SYSTEM    = UTC
MEAN_ELEMENT_THEORY = SGP/SGP4

EPOCH          = 2025-11-24T02:42:11.136096
MEAN_MOTION    = 12.32152378
ECCENTRICITY   = .0173943
INCLINATION    = 102.0131
RA_OF_ASC_NODE = 26.1651
ARG_OF_PERICENTER = 327.1787
MEAN_ANOMALY   = 60.0517

EPHEMERIS_TYPE = 0
CLASSIFICATION_TYPE = U
NORAD_CAT_ID   = 87561
ELEMENT_SET_NO = 999
REV_AT_EPOCH   = 54014
BSTAR          = .51925E-3
MEAN_MOTION_DOT = .22E-6
MEAN_MOTION_DDOT = 0

